TRANSPORTER-11 OBJECT A 
1 60468U 24149A   26068.74646182  .00010774  00000+0  36054-3 0  9993
2 60468  97.3780 149.0949 0003110 191.0010 169.1164 15.31141332 86830
STARLINK-34092          
1 63904U 25095Q   26067.37483049  .00020298  00000+0  74418-3 0  9999
2 63904  43.0048 183.9185 0004049 289.7092  70.3323 15.27616990 47579
